{
  "type": "FeatureCollection",
  "features": [
    {
      "type": "Feature",
      "properties": {
        "name": "Cheyenne Hub (approx)",
        "kind": "junction"
      },
      "geometry": {
        "type": "Point",
        "coordinates": [
          -104.96,
          40.76
        ]
      }
    },
    {
      "type": "Feature",
      "properties": {
        "name": "Beatrice / Gage Co. anchor",
        "kind": "junction"
      },
      "geometry": {
        "type": "Point",
        "coordinates": [
          -96.746691,
          40.265927
        ]
      }
    },
    {
      "type": "Feature",
      "properties": {
        "name": "Sedgwick/Julesburg anchor",
        "kind": "junction"
      },
      "geometry": {
        "type": "Point",
        "coordinates": [
          -102.264352,
          40.988326
        ]
      }
    },
    {
      "type": "Feature",
      "properties": {
        "name": "Tallgrass mainline (via Sedgwick)",
        "kind": "pipeline",
        "style": "solid"
      },
      "geometry": {
        "type": "LineString",
        "coordinates": [
          [
            -96.746691,
            40.265927
          ],
          [
            -102.264352,
            40.988326
          ],
          [
            -104.96,
            40.76
          ]
        ]
      }
    },
    {
      "type": "Feature",
      "properties": {
        "name": "Hastings \u279c Tallgrass (Adams placeholder)",
        "kind": "pipeline",
        "dash": "6,6"
      },
      "geometry": {
        "type": "LineString",
        "coordinates": [
          [
            -98.3189,
            40.585
          ],
          [
            -98.306764,
            40.48
          ]
        ]
      }
    },
    {
      "type": "Feature",
      "properties": {
        "name": "Lexington \u279c Tallgrass (placeholder)",
        "kind": "pipeline",
        "dash": "6,6"
      },
      "geometry": {
        "type": "LineString",
        "coordinates": [
          [
            -99.7679,
            40.7461
          ],
          [
            -99.73,
            40.6461
          ]
        ]
      }
    },
    {
      "type": "Feature",
      "properties": {
        "name": "Wood River lateral",
        "kind": "pipeline",
        "dash": "6,6"
      },
      "geometry": {
        "type": "LineString",
        "coordinates": [
          [
            -98.6074,
            40.8158
          ],
          [
            -98.6074,
            40.52
          ]
        ]
      }
    },
    {
      "type": "Feature",
      "properties": {
        "name": "KAAPA Aurora \u279c tie",
        "kind": "pipeline",
        "dash": "6,6"
      },
      "geometry": {
        "type": "LineString",
        "coordinates": [
          [
            -98.0364,
            40.868
          ],
          [
            -98.3189,
            40.585
          ]
        ]
      }
    },
    {
      "type": "Feature",
      "properties": {
        "name": "Central City \u279c Hastings",
        "kind": "pipeline",
        "dash": "6,6"
      },
      "geometry": {
        "type": "LineString",
        "coordinates": [
          [
            -97.977506,
            41.111833
          ],
          [
            -98.3189,
            40.585
          ]
        ]
      }
    },
    {
      "type": "Feature",
      "properties": {
        "name": "ADM Columbus \u279c tie",
        "kind": "pipeline",
        "dash": "6,6"
      },
      "geometry": {
        "type": "LineString",
        "coordinates": [
          [
            -97.2896,
            41.419
          ],
          [
            -97.288667,
            40.331502
          ]
        ]
      }
    },
    {
      "type": "Feature",
      "properties": {
        "name": "POET Fairbury \u279c tie",
        "kind": "pipeline",
        "dash": "6,6"
      },
      "geometry": {
        "type": "LineString",
        "coordinates": [
          [
            -97.6015,
            40.6113
          ],
          [
            -97.601,
            40.38
          ]
        ]
      }
    },
    {
      "type": "Feature",
      "properties": {
        "name": "Green Plains York \u279c tie",
        "kind": "pipeline",
        "dash": "6,6"
      },
      "geometry": {
        "type": "LineString",
        "coordinates": [
          [
            -97.5674,
            40.6987
          ],
          [
            -97.567333,
            40.38
          ]
        ]
      }
    },
    {
      "type": "Feature",
      "properties": {
        "name": "KAAPA Minden \u279c tie",
        "kind": "pipeline",
        "dash": "6,6"
      },
      "geometry": {
        "type": "LineString",
        "coordinates": [
          [
            -99.0733,
            40.4834
          ],
          [
            -99.073,
            40.5849
          ]
        ]
      }
    },
    {
      "type": "Feature",
      "properties": {
        "name": "Madrid \u279c tie",
        "kind": "pipeline",
        "dash": "6,6"
      },
      "geometry": {
        "type": "LineString",
        "coordinates": [
          [
            -101.54,
            40.854
          ],
          [
            -101.54,
            40.8975
          ]
        ]
      }
    },
    {
      "type": "Feature",
      "properties": {
        "name": "SIRE \u279c Tallgrass (approx)",
        "kind": "pipeline",
        "dash": "6,6"
      },
      "geometry": {
        "type": "LineString",
        "coordinates": [
          [
            -95.82829,
            41.16744
          ],
          [
            -96.746691,
            40.265927
          ]
        ]
      }
    }
  ]
}