{
  "type": "FeatureCollection",
  "features": [
    {
      "type": "Feature",
      "properties": {
        "name": "Yuma Ethanol",
        "category": "ethanol_plant",
        "operator": "Carbon America",
        "system": "Denova",
        "description": "Approximate CO2 capture source"
      },
      "geometry": {
        "type": "Point",
        "coordinates": [-102.67, 40.12]
      }
    },
    {
      "type": "Feature",
      "properties": {
        "name": "Sterling Ethanol",
        "category": "ethanol_plant",
        "operator": "Carbon America",
        "system": "Denova",
        "description": "Approximate CO2 capture source"
      },
      "geometry": {
        "type": "Point",
        "coordinates": [-103.22, 40.62]
      }
    },
    {
      "type": "Feature",
      "properties": {
        "name": "Carbon America - Denova",
        "category": "storage_hub",
        "operator": "Carbon America",
        "system": "Denova",
        "description": "Approximate CO2 sequestration site; not survey-grade"
      },
      "geometry": {
        "type": "Point",
        "coordinates": [-102.80, 40.01]
      }
    },
    {
      "type": "Feature",
      "properties": {
        "name": "Yuma to Carbon America - Denova",
        "category": "co2_pipeline",
        "operator": "Carbon America",
        "system": "Denova",
        "description": "Approximate dedicated CO2 pipeline route"
      },
      "geometry": {
        "type": "LineString",
        "coordinates": [
          [-102.67, 40.12],
          [-102.80, 40.01]
        ]
      }
    },
    {
      "type": "Feature",
      "properties": {
        "name": "Sterling to Carbon America - Denova",
        "category": "co2_pipeline",
        "operator": "Carbon America",
        "system": "Denova",
        "description": "Approximate dedicated CO2 pipeline route"
      },
      "geometry": {
        "type": "LineString",
        "coordinates": [
          [-103.22, 40.62],
          [-102.80, 40.01]
        ]
      }
    }
  ]
}
